OBJECT_NAME,OBJECT_ID,EPOCH,MEAN_MOTION,ECCENTRICITY,INCLINATION,RA_OF_ASC_NODE,ARG_OF_PERICENTER,MEAN_ANOMALY,EPHEMERIS_TYPE,CLASSIFICATION_TYPE,NORAD_CAT_ID,ELEMENT_SET_NO,REV_AT_EPOCH,BSTAR,MEAN_MOTION_DOT,MEAN_MOTION_DDOT
M2 PATHFINDER,2020-037E,2026-07-19T02:22:26.431392,15.04798236,.00125495,97.8140,31.6917,50.1825,310.0503,0,U,45727,999,33029,.68316464E-4,.901E-5,0
NETSAT-4,2020-068U,2026-07-19T06:17:05.705376,15.44839546,.00052612,97.8610,211.1052,178.8455,181.2805,0,U,46504,999,32072,.20186992E-3,.9371E-4,0
NETSAT-3,2020-068V,2026-07-19T07:00:52.953120,15.43693585,.00043388,97.8661,209.3160,194.1154,165.9972,0,U,46505,999,32063,.21902912E-3,.9786E-4,0
NETSAT-1,2020-068W,2026-07-18T22:44:17.176128,15.35296876,.00026691,97.8760,202.8914,240.2623,119.8354,0,U,46506,999,32017,.20291223E-3,.6865E-4,0
NETSAT-2,2020-068X,2026-07-19T06:06:19.995840,15.47274192,.00027377,97.8621,211.1162,191.7705,168.3480,0,U,46507,999,32069,.25914461E-3,.13112E-3,0
GREENCUBE (IO-117),2022-080E,2026-07-19T05:53:22.496064,6.42583325,.00090857,70.1403,287.0980,282.5487,77.4156,0,U,53109,999,9412,0,-.3E-7,0
SITRO-AIS 5 (KATYS),2023-091L,2026-07-19T06:02:03.647904,15.30115636,.00102103,97.5037,264.4685,357.8749,2.2446,0,U,57176,999,16924,.21124781E-3,.6086E-4,0
SITRO-AIS 6 (CHIRKIN),2023-091AC,2026-07-19T04:11:15.822816,15.26478621,.00107551,97.5046,263.3372,2.5099,357.6192,0,U,57192,999,16916,.19345327E-3,.4978E-4,0
SITRO-AIS 8 (ANOKHIN),2023-091AD,2026-07-19T06:37:55.384608,15.32919625,.00090794,97.5033,266.2162,353.0099,7.1015,0,U,57193,999,16936,.23345321E-3,.7351E-4,0
SITRO-AIS 7 (FARTUSHNIY),2023-091AE,2026-07-19T05:59:51.329760,15.26152003,.00107088,97.5042,263.2209,3.5934,356.5379,0,U,57194,999,16916,.19033097E-3,.4848E-4,0
SITRO-AIS 10 (BURDAEV),2023-091AK,2026-07-19T07:11:12.731424,15.39718975,.00045299,97.5059,271.6340,322.7364,37.3566,0,U,57199,999,16970,.26070125E-3,.10224E-3,0
SITRO-AIS 9 (SHCHUKIN),2023-091AM,2026-07-19T06:30:44.823168,15.39200965,.00047923,97.5057,271.3092,323.5151,36.5767,0,U,57201,999,16968,.25999861E-3,.10025E-3,0
SITRO-AIS 12 (SMIRENNIY),2023-091AQ,2026-07-19T06:08:25.955808,15.39496939,.00044218,97.5070,271.7808,315.3432,44.7457,0,U,57204,999,16970,.26613528E-3,.10363E-3,0
SITRO-AIS 11 (SHEFFER),2023-091AU,2026-07-19T06:14:41.455392,15.39943679,.00043541,97.5068,272.0525,314.4172,45.6717,0,U,57208,999,16972,.26516657E-3,.10478E-3,0
SITRO-AIS 25,2024-039R,2026-07-19T06:23:41.145216,14.93656442,.01431209,95.3889,257.1363,215.1300,144.0426,0,U,59066,999,12951,.11479611E-3,.1448E-4,0
SITRO-AIS 26,2024-039S,2026-07-19T06:32:02.247072,14.93447158,.01434543,95.3890,257.0312,215.7269,143.4295,0,U,59067,999,12950,.10242554E-3,.1282E-4,0
SITRO-AIS 27,2024-039T,2026-07-19T07:12:37.293696,14.93871945,.01425733,95.3894,257.3374,214.1464,145.0531,0,U,59068,999,12953,.14536969E-3,.1852E-4,0
SITRO-AIS 28,2024-039U,2026-07-19T06:39:05.796288,14.93905862,.0142443,95.3893,257.3704,214.0654,145.1369,0,U,59071,999,12953,.10365864E-3,.1311E-4,0
GRBBETA,2024-128C,2026-07-19T03:23:12.145920,15.06823469,.00365518,61.9889,104.1391,141.5469,218.8240,0,U,60237,999,11108,.12636319E-3,.1698E-4,0
OOV-CUBE (TUBSAT-30),2024-128F,2026-07-19T06:13:06.968352,15.02883153,.00405956,61.9942,113.7300,140.9003,219.5034,0,U,60240,999,11093,.83634225E-4,.93E-5,0
ROBUSTA-3A (MEDITERRANEE),2024-128J,2026-07-19T05:06:06.183648,15.12018603,.00375759,61.9861,94.9607,134.4225,225.9956,0,U,60243,999,11126,.22147173E-3,.3658E-4,0
LASARSAT,2024-247Q,2026-07-18T22:23:23.875872,15.48202624,.00079764,44.9739,83.5637,189.9528,170.1206,0,U,62391,999,8823,.39367272E-3,.20905E-3,0
CROCUBE,2024-247T,2026-07-18T22:53:00.364416,15.50381393,.00081477,44.9710,80.2241,196.1185,163.9448,0,U,62394,999,8827,.43401259E-3,.24965E-3,0
FORESAIL-1 PRIME,2025-276DS,2026-07-19T03:31:28.170912,15.18956984,.00025565,97.4184,272.8360,36.0771,324.0635,0,U,66778,999,3525,.11612548E-3,.2359E-4,0
KNACKSAT-2,1998-067XZ,2026-07-19T05:22:27.952032,15.62683564,.00081481,51.6273,132.9886,342.4900,17.5813,0,U,67683,999,2528,.37973859E-3,.34381E-3,0
