M2 PATHFINDER           
1 45727U 20037E   26200.09891703  .00000901  00000+0  68316-4 0  9991
2 45727  97.8140  31.6917 0012549  50.1825 310.0503 15.04798236330299
NETSAT-4                
1 46504U 20068U   26200.26187159  .00009371  00000+0  20187-3 0  9994
2 46504  97.8610 211.1052 0005261 178.8455 181.2805 15.44839546320724
NETSAT-3                
1 46505U 20068V   26200.29227955  .00009786  00000+0  21903-3 0  9994
2 46505  97.8661 209.3160 0004338 194.1154 165.9972 15.43693585320635
NETSAT-1                
1 46506U 20068W   26199.94742102  .00006865  00000+0  20291-3 0  9994
2 46506  97.8760 202.8914 0002669 240.2623 119.8354 15.35296876320174
NETSAT-2                
1 46507U 20068X   26200.25439810  .00013112  00000+0  25914-3 0  9991
2 46507  97.8621 211.1162 0002737 191.7705 168.3480 15.47274192320692
GREENCUBE (IO-117)      
1 53109U 22080E   26200.24539926 -.00000003  00000+0  00000+0 0  9992
2 53109  70.1403 287.0980 0009085 282.5487  77.4156  6.42583325 94121
SITRO-AIS 5 (KATYS)     
1 57176U 23091L   26200.25143111  .00006086  00000+0  21125-3 0  9992
2 57176  97.5037 264.4685 0010210 357.8749   2.2446 15.30115636169242
SITRO-AIS 6 (CHIRKIN)   
1 57192U 23091AC  26200.17448869  .00004978  00000+0  19345-3 0  9998
2 57192  97.5046 263.3372 0010755   2.5099 357.6192 15.26478621169164
SITRO-AIS 8 (ANOKHIN)   
1 57193U 23091AD  26200.27633547  .00007351  00000+0  23345-3 0  9992
2 57193  97.5033 266.2162 0009079 353.0099   7.1015 15.32919625169365
SITRO-AIS 7 (FARTUSHNIY)
1 57194U 23091AE  26200.24989965  .00004848  00000+0  19033-3 0  9995
2 57194  97.5042 263.2209 0010708   3.5934 356.5379 15.26152003169165
SITRO-AIS 10 (BURDAEV)  
1 57199U 23091AK  26200.29945291  .00010224  00000+0  26070-3 0  9993
2 57199  97.5059 271.6340 0004529 322.7364  37.3566 15.39718975169706
SITRO-AIS 9 (SHCHUKIN)  
1 57201U 23091AM  26200.27135212  .00010025  00000+0  26000-3 0  9991
2 57201  97.5057 271.3092 0004792 323.5151  36.5767 15.39200965169680
SITRO-AIS 12 (SMIRENNIY)
1 57204U 23091AQ  26200.25585597  .00010363  00000+0  26614-3 0  9993
2 57204  97.5070 271.7808 0004421 315.3432  44.7457 15.39496939169705
SITRO-AIS 11 (SHEFFER)  
1 57208U 23091AU  26200.26020203  .00010478  00000+0  26517-3 0  9995
2 57208  97.5068 272.0525 0004354 314.4172  45.6717 15.39943679169721
SITRO-AIS 25            
1 59066U 24039R   26200.26644844  .00001448  00000+0  11480-3 0  9995
2 59066  95.3889 257.1363 0143120 215.1300 144.0426 14.93656442129513
SITRO-AIS 26            
1 59067U 24039S   26200.27224823  .00001282  00000+0  10243-3 0  9990
2 59067  95.3890 257.0312 0143454 215.7269 143.4295 14.93447158129507
SITRO-AIS 27            
1 59068U 24039T   26200.30043164  .00001852  00000+0  14537-3 0  9995
2 59068  95.3894 257.3374 0142573 214.1464 145.0531 14.93871945129533
SITRO-AIS 28            
1 59071U 24039U   26200.27715042  .00001311  00000+0  10366-3 0  9992
2 59071  95.3893 257.3704 0142443 214.0654 145.1369 14.93905862129535
GRBBETA                 
1 60237U 24128C   26200.14111280  .00001698  00000+0  12636-3 0  9997
2 60237  61.9889 104.1391 0036551 141.5469 218.8240 15.06823469111080
OOV-CUBE (TUBSAT-30)    
1 60240U 24128F   26200.25910843  .00000930  00000+0  83634-4 0  9990
2 60240  61.9942 113.7300 0040595 140.9003 219.5034 15.02883153110934
ROBUSTA-3A (MEDITERRAN*)
1 60243U 24128J   26200.21257157  .00003658  00000+0  22147-3 0  9992
2 60243  61.9861  94.9607 0037575 134.4225 225.9956 15.12018603111267
LASARSAT                
1 62391U 24247Q   26199.93291523  .00020905  00000+0  39367-3 0  9997
2 62391  44.9739  83.5637 0007976 189.9528 170.1206 15.48202624 88234
CROCUBE                 
1 62394U 24247T   26199.95347644  .00024965  00000+0  43401-3 0  9992
2 62394  44.9710  80.2241 0008147 196.1185 163.9448 15.50381393 88277
FORESAIL-1 PRIME        
1 66778U 25276DS  26200.14685383  .00002359  00000+0  11613-3 0  9997
2 66778  97.4184 272.8360 0002556  36.0771 324.0635 15.18956984 35253
KNACKSAT-2              
1 67683U 98067XZ  26200.22393463  .00034381  00000+0  37974-3 0  9993
2 67683  51.6273 132.9886 0008148 342.4900  17.5813 15.62683564 25284
